[
    {
        "Altitude(m)": 553719.6940858159,
        "Argument of Periapsis(deg)": 0.013245982221427002,
        "Eccentricity": 0.0,
        "Inclination(deg)": 53.0,
        "Latitude(deg)": 18.86251318683925,
        "Longitude(deg)": 78.25838102568842,
        "Mean Anomaly(deg)": 23.819585735155172,
        "RAAN(deg)": 164.98028673705602,
        "Satellite Name": "Starlink Shell 1 726",
        "Satellite Number": 726,
        "Semi-Major Axis(m)": 6931778.249405717,
        "Time(s)": 380
    },
    {
        "Altitude(m)": 553755.0922729615,
        "Argument of Periapsis(deg)": 0.013594560700938237,
        "Eccentricity": 0.0,
        "Inclination(deg)": 53.0,
        "Latitude(deg)": 19.348854814471505,
        "Longitude(deg)": 78.63878799117792,
        "Mean Anomaly(deg)": 24.446416938711895,
        "RAAN(deg)": 164.97976796697856,
        "Satellite Name": "Starlink Shell 1 726",
        "Satellite Number": 726,
        "Semi-Major Axis(m)": 6931778.249405717,
        "Time(s)": 390
    },
    {
        "Altitude(m)": 553792.6273147223,
        "Argument of Periapsis(deg)": 0.013943139180449475,
        "Eccentricity": 0.0,
        "Inclination(deg)": 53.0,
        "Latitude(deg)": 19.834191245321986,
        "Longitude(deg)": 79.0216981994776,
        "Mean Anomaly(deg)": 25.07324814226859,
        "RAAN(deg)": 164.97924919690107,
        "Satellite Name": "Starlink Shell 1 726",
        "Satellite Number": 726,
        "Semi-Major Axis(m)": 6931778.249405717,
        "Time(s)": 400
    },
    {
        "Altitude(m)": 553832.2595768063,
        "Argument of Periapsis(deg)": 0.014291717659960712,
        "Eccentricity": 0.0,
        "Inclination(deg)": 53.0,
        "Latitude(deg)": 20.31848922613647,
        "Longitude(deg)": 79.40718996115253,
        "Mean Anomaly(deg)": 25.700079345825312,
        "RAAN(deg)": 164.9787304268236,
        "Satellite Name": "Starlink Shell 1 726",
        "Satellite Number": 726,
        "Semi-Major Axis(m)": 6931778.249405717,
        "Time(s)": 410
    },
    {
        "Altitude(m)": 553873.9485256543,
        "Argument of Periapsis(deg)": 0.014640296139471948,
        "Eccentricity": 0.0,
        "Inclination(deg)": 53.0,
        "Latitude(deg)": 20.801714910067602,
        "Longitude(deg)": 79.79534212952717,
        "Mean Anomaly(deg)": 26.326910549382028,
        "RAAN(deg)": 164.97821165674614,
        "Satellite Name": "Starlink Shell 1 726",
        "Satellite Number": 726,
        "Semi-Major Axis(m)": 6931778.249405717,
        "Time(s)": 420
    },
    {
        "Altitude(m)": 553917.6527510172,
        "Argument of Periapsis(deg)": 0.014988874618983185,
        "Eccentricity": 0.0,
        "Inclination(deg)": 53.0,
        "Latitude(deg)": 21.283833835313544,
        "Longitude(deg)": 80.18623462959458,
        "Mean Anomaly(deg)": 26.95374175293875,
        "RAAN(deg)": 164.97769288666865,
        "Satellite Name": "Starlink Shell 1 726",
        "Satellite Number": 726,
        "Semi-Major Axis(m)": 6931778.249405717,
        "Time(s)": 430
    },
    {
        "Altitude(m)": 553963.329988935,
        "Argument of Periapsis(deg)": 0.015337453098494424,
        "Eccentricity": 0.0,
        "Inclination(deg)": 53.0,
        "Latitude(deg)": 21.764810903271677,
        "Longitude(deg)": 80.57994898639622,
        "Mean Anomaly(deg)": 27.580572956495473,
        "RAAN(deg)": 164.9771741165912,
        "Satellite Name": "Starlink Shell 1 726",
        "Satellite Number": 726,
        "Semi-Major Axis(m)": 6931778.249405717,
        "Time(s)": 440
    },
    {
        "Altitude(m)": 554010.9371450839,
        "Argument of Periapsis(deg)": 0.01568603157800566,
        "Eccentricity": 0.0,
        "Inclination(deg)": 53.0,
        "Latitude(deg)": 22.244610356198468,
        "Longitude(deg)": 80.97656733992235,
        "Mean Anomaly(deg)": 28.207404160052167,
        "RAAN(deg)": 164.97665534651372,
        "Satellite Name": "Starlink Shell 1 726",
        "Satellite Number": 726,
        "Semi-Major Axis(m)": 6931778.249405717,
        "Time(s)": 450
    },
    {
        "Altitude(m)": 554060.4303185572,
        "Argument of Periapsis(deg)": 0.0160346100575169,
        "Eccentricity": 0.0,
        "Inclination(deg)": 53.0,
        "Latitude(deg)": 22.723195754368106,
        "Longitude(deg)": 81.37617297220021,
        "Mean Anomaly(deg)": 28.83423536360889,
        "RAAN(deg)": 164.97613657643623,
        "Satellite Name": "Starlink Shell 1 726",
        "Satellite Number": 726,
        "Semi-Major Axis(m)": 6931778.249405717,
        "Time(s)": 460
    },
    {
        "Altitude(m)": 554111.764825967,
        "Argument of Periapsis(deg)": 0.016383188537028134,
        "Eccentricity": 0.0,
        "Inclination(deg)": 53.0,
        "Latitude(deg)": 23.20052995272177,
        "Longitude(deg)": 81.77885083360454,
        "Mean Anomaly(deg)": 29.46106656716561,
        "RAAN(deg)": 164.97561780635877,
        "Satellite Name": "Starlink Shell 1 726",
        "Satellite Number": 726,
        "Semi-Major Axis(m)": 6931778.249405717,
        "Time(s)": 470
    },
    {
        "Altitude(m)": 554164.8952259201,
        "Argument of Periapsis(deg)": 0.01673176701653937,
        "Eccentricity": 0.0,
        "Inclination(deg)": 53.0,
        "Latitude(deg)": 23.676575077000066,
        "Longitude(deg)": 82.18468655542003,
        "Mean Anomaly(deg)": 30.087897770722332,
        "RAAN(deg)": 164.9750990362813,
        "Satellite Name": "Starlink Shell 1 726",
        "Satellite Number": 726,
        "Semi-Major Axis(m)": 6931778.249405717,
        "Time(s)": 480
    },
    {
        "Altitude(m)": 554219.7753438542,
        "Argument of Periapsis(deg)": 0.017080345496050607,
        "Eccentricity": 0.0,
        "Inclination(deg)": 53.0,
        "Latitude(deg)": 24.151292499354554,
        "Longitude(deg)": 82.59376697429914,
        "Mean Anomaly(deg)": 30.714728974279055,
        "RAAN(deg)": 164.97458026620382,
        "Satellite Name": "Starlink Shell 1 726",
        "Satellite Number": 726,
        "Semi-Major Axis(m)": 6931778.249405717,
        "Time(s)": 490
    },
    {
        "Altitude(m)": 554276.3582971712,
        "Argument of Periapsis(deg)": 0.017428923975561842,
        "Eccentricity": 0.0,
        "Inclination(deg)": 53.0,
        "Latitude(deg)": 24.624642813433095,
        "Longitude(deg)": 83.00618065562625,
        "Mean Anomaly(deg)": 31.34156017783575,
        "RAAN(deg)": 164.97406149612635,
        "Satellite Name": "Starlink Shell 1 726",
        "Satellite Number": 726,
        "Semi-Major Axis(m)": 6931778.249405717,
        "Time(s)": 500
    },
    {
        "Altitude(m)": 554334.5965207096,
        "Argument of Periapsis(deg)": 0.01777750245507308,
        "Eccentricity": 0.0,
        "Inclination(deg)": 53.0,
        "Latitude(deg)": 25.096585808935004,
        "Longitude(deg)": 83.42201690279154,
        "Mean Anomaly(deg)": 31.968391381392447,
        "RAAN(deg)": 164.9735427260489,
        "Satellite Name": "Starlink Shell 1 726",
        "Satellite Number": 726,
        "Semi-Major Axis(m)": 6931778.249405717,
        "Time(s)": 510
    },
    {
        "Altitude(m)": 554394.4417925145,
        "Argument of Periapsis(deg)": 0.018126080934584315,
        "Eccentricity": 0.0,
        "Inclination(deg)": 53.0,
        "Latitude(deg)": 25.56708044563556,
        "Longitude(deg)": 83.84136627799,
        "Mean Anomaly(deg)": 32.59522258494919,
        "RAAN(deg)": 164.9730239559714,
        "Satellite Name": "Starlink Shell 1 726",
        "Satellite Number": 726,
        "Semi-Major Axis(m)": 6931778.249405717,
        "Time(s)": 520
    },
    {
        "Altitude(m)": 554455.8452598903,
        "Argument of Periapsis(deg)": 0.018474659414095554,
        "Eccentricity": 0.0,
        "Inclination(deg)": 53.0,
        "Latitude(deg)": 26.03608482687918,
        "Longitude(deg)": 84.26432112152864,
        "Mean Anomaly(deg)": 33.22205378850591,
        "RAAN(deg)": 164.97250518589394,
        "Satellite Name": "Starlink Shell 1 726",
        "Satellite Number": 726,
        "Semi-Major Axis(m)": 6931778.249405717,
        "Time(s)": 530
    },
    {
        "Altitude(m)": 554518.7574657293,
        "Argument of Periapsis(deg)": 0.018823237893606792,
        "Eccentricity": 0.0,
        "Inclination(deg)": 53.0,
        "Latitude(deg)": 26.503556172541785,
        "Longitude(deg)": 84.69097455661301,
        "Mean Anomaly(deg)": 33.84888499206261,
        "RAAN(deg)": 164.97198641581647,
        "Satellite Name": "Starlink Shell 1 726",
        "Satellite Number": 726,
        "Semi-Major Axis(m)": 6931778.249405717,
        "Time(s)": 540
    },
    {
        "Altitude(m)": 554583.1283751178,
        "Argument of Periapsis(deg)": 0.019171816373118027,
        "Eccentricity": 0.0,
        "Inclination(deg)": 53.0,
        "Latitude(deg)": 26.9694507914674,
        "Longitude(deg)": 85.12142100519682,
        "Mean Anomaly(deg)": 34.47571619561933,
        "RAAN(deg)": 164.97146764573898,
        "Satellite Name": "Starlink Shell 1 726",
        "Satellite Number": 726,
        "Semi-Major Axis(m)": 6931778.249405717,
        "Time(s)": 550
    },
    {
        "Altitude(m)": 554648.9074021643,
        "Argument of Periapsis(deg)": 0.019520394852629266,
        "Eccentricity": 0.0,
        "Inclination(deg)": 53.0,
        "Latitude(deg)": 27.433724053383806,
        "Longitude(deg)": 85.55575670184318,
        "Mean Anomaly(deg)": 35.10254739917605,
        "RAAN(deg)": 164.97094887566152,
        "Satellite Name": "Starlink Shell 1 726",
        "Satellite Number": 726,
        "Semi-Major Axis(m)": 6931778.249405717,
        "Time(s)": 560
    }
]